NORAD_CAT_ID,OBJECT_NAME,OBJECT_TYPE,EPOCH,MEAN_MOTION,ECCENTRICITY,INCLINATION,RA_OF_ASC_NODE,ARG_OF_PERICENTER,MEAN_ANOMALY,BSTAR,MEAN_MOTION_DOT,MEAN_MOTION_DDOT,TLE_LINE0,TLE_LINE1,TLE_LINE2,SEMIMAJOR_AXIS,PERIOD,APOGEE,PERIGEE,DECAYED
52684.0,STARLINK-4014,PAYLOAD,2023-01-19 17:24:13,15.08831216,0.0001493,53.2138,244.0648,80.7542,279.3619,-0.00016783,-2.957e-05,0.0,0 STARLINK-4014,1 52684U 22053AE  23019.72515370 -.00002957  00000-0 -16783-3 0  9995,2 52684  53.2138 244.0648 0001493  80.7542 279.3619 15.08831216 37901,6917.906999999999,95.438,540.805,538.739,0.0
52684.0,STARLINK-4014,PAYLOAD,2023-01-20 09:18:04,15.0883981,0.0001236,53.2147,241.0897,86.8716,273.2418,6.4404e-05,7.37e-06,0.0,0 STARLINK-4014,1 52684U 22053AE  23020.38755311  .00000737  00000-0  64404-4 0  9996,2 52684  53.2147 241.0897 0001236  86.8716 273.2418 15.08839810 38009,6917.880999999999,95.438,540.601,538.891,0.0
52684.0,STARLINK-4014,PAYLOAD,2023-01-20 22:01:09,15.08850537,0.0001230999999999,53.2146,238.7115,83.645,276.4682,0.00019157,2.763e-05,0.0,0 STARLINK-4014,1 52684U 22053AE  23020.91746883  .00002763  00000-0  19157-3 0  9994,2 52684  53.2146 238.7115 0001231  83.6450 276.4682 15.08850537 38084,6917.848000000001,95.437,540.565,538.862,0.0
52684.0,STARLINK-4014,PAYLOAD,2023-01-21 09:08:51,15.08842471,0.0001176,53.2147,236.6298,75.4183,284.6939,0.00015459,2.173e-05,0.0,0 STARLINK-4014,1 52684U 22053AE  23021.38115281  .00002173  00000-0  15459-3 0  9994,2 52684  53.2147 236.6298 0001176  75.4183 284.6939 15.08842471 38156,6917.8730000000005,95.437,540.5509999999999,538.924,0.0
52684.0,STARLINK-4014,PAYLOAD,2023-01-22 10:35:02,15.088391,0.000143,53.2149,231.8732,77.7125,282.4028,-6.2913e-06,-3.88e-06,0.0,0 STARLINK-4014,1 52684U 22053AE  23022.44099549 -.00000388  00000-0 -62913-5 0  9997,2 52684  53.2149 231.8732 0001430  77.7125 282.4028 15.08839100 38310,6917.883000000001,95.438,540.737,538.759,0.0
52684.0,STARLINK-4014,PAYLOAD,2023-01-23 15:11:58,15.08839042,0.0001379,53.2158,226.5195,79.558,280.5568,4.1429e-05,3.71e-06,0.0,0 STARLINK-4014,1 52684U 22053AE  23023.63331458  .00000371  00000-0  41429-4 0  9995,2 52684  53.2158 226.5195 0001379  79.5580 280.5568 15.08839042 38493,6917.883000000001,95.438,540.702,538.794,0.0
52684.0,STARLINK-4014,PAYLOAD,2023-01-24 19:48:54,15.08841359,0.0001158,53.2162,221.1653,90.0004,270.1121,9.5759e-05,1.237e-05,0.0,0 STARLINK-4014,1 52684U 22053AE  23024.82563032  .00001237  00000-0  95759-4 0  9999,2 52684  53.2162 221.1653 0001158  90.0004 270.1121 15.08841359 38676,6917.876,95.437,540.5419999999999,538.94,0.0
52684.0,STARLINK-4014,PAYLOAD,2023-01-25 05:21:14,15.088192499999998,0.0001264,53.2168,219.38,95.2936,264.82,0.00029744,4.446e-05,0.0,0 STARLINK-4014,1 52684U 22053AE  23025.22308060  .00004446  00000-0  29744-3 0  9997,2 52684  53.2168 219.3800 0001264  95.2936 264.8200 15.08819250 38734,6917.944,95.439,540.683,538.934,0.0
52684.0,STARLINK-4014,PAYLOAD,2023-01-25 13:18:09,15.08831143,0.0001157,53.216,217.8945,90.4099,269.7026,-7.889e-06,-4.13e-06,0.0,0 STARLINK-4014,1 52684U 22053AE  23025.55428003 -.00000413  00000-0 -78890-5 0  9993,2 52684  53.2160 217.8945 0001157  90.4099 269.7026 15.08831143 39160,6917.906999999999,95.438,540.573,538.972,0.0
52684.0,STARLINK-4014,PAYLOAD,2023-01-25 19:39:42,15.08834503,0.0001127999999999,53.2159,216.7049,93.2305,266.8816,1.8461e-05,6e-08,0.0,0 STARLINK-4014,1 52684U 22053AE  23025.81923785  .00000006  00000-0  18461-4 0  9992,2 52684  53.2159 216.7049 0001128  93.2305 266.8816 15.08834503 38820,6917.897,95.438,540.543,538.982,0.0
52684.0,STARLINK-4014,PAYLOAD,2023-01-26 05:12:00,15.08836504,0.0001092,53.2161,214.9201,89.4128,270.6989,1.5842000000000002e-05,-3.6e-07,0.0,0 STARLINK-4014,1 52684U 22053AE  23026.21667795 -.00000036  00000-0  15842-4 0  9997,2 52684  53.2161 214.9201 0001092  89.4128 270.6989 15.08836504 39269,6917.891,95.438,540.512,539.001,0.0
52684.0,STARLINK-4014,PAYLOAD,2023-01-26 21:05:52,15.08841518,0.0001074,53.2165,211.9461,87.2864,272.8251,5.5475e-05,5.95e-06,0.0,0 STARLINK-4014,1 52684U 22053AE  23026.87907416  .00000595  00000-0  55475-4 0  9991,2 52684  53.2165 211.9461 0001074  87.2864 272.8251 15.08841518 38986,6917.876,95.437,540.484,538.998,0.0
52684.0,STARLINK-4014,PAYLOAD,2023-01-27 05:02:47,15.0883815,0.0001072999999999,53.2165,210.4594,86.9918,273.1197,3.0985e-05,2.05e-06,0.0,0 STARLINK-4014,1 52684U 22053AE  23027.21027711  .00000205  00000-0  30985-4 0  9998,2 52684  53.2165 210.4594 0001073  86.9918 273.1197 15.08838150 39412,6917.886,95.438,540.493,539.009,0.0
52684.0,STARLINK-4014,PAYLOAD,2023-01-27 19:21:16,15.08835924,0.0001068,53.2168,207.7828,86.6929,273.4186,7.4557e-05,8.99e-06,0.0,0 STARLINK-4014,1 52684U 22053AE  23027.80644028  .00000899  00000-0  74557-4 0  9991,2 52684  53.2168 207.7828 0001068  86.6929 273.4186 15.08835924 39122,6917.893,95.438,540.497,539.019,0.0
52684.0,STARLINK-4014,PAYLOAD,2023-01-28 04:53:35,15.08840038,0.000108,53.2168,205.9991,92.1836,267.928,8.2969e-05,1.033e-05,0.0,0 STARLINK-4014,1 52684U 22053AE  23028.20387747  .00001033  00000-0  82969-4 0  9995,2 52684  53.2168 205.9991 0001080  92.1836 267.9280 15.08840038 39569,6917.88,95.438,540.492,538.998,0.0
52684.0,STARLINK-4014,PAYLOAD,2023-01-28 17:36:39,15.08843784,0.000109,53.2168,203.6198,92.3971,267.7146,7.9698e-05,9.81e-06,0.0,0 STARLINK-4014,1 52684U 22053AE  23028.73379482  .00000981  00000-0  79698-4 0  9996,2 52684  53.2168 203.6198 0001090  92.3971 267.7146 15.08843784 39263,6917.869,95.437,540.488,538.98,0.0
52684.0,STARLINK-4014,PAYLOAD,2023-01-28 20:47:25,15.08846627,0.00011,53.2169,203.0251,91.9328,268.179,0.00010089,1.318e-05,0.0,0 STARLINK-4014,1 52684U 22053AE  23028.86627205  .00001318  00000-0  10089-3 0  9992,2 52684  53.2169 203.0251 0001100  91.9328 268.1790 15.08846627 39664,6917.86,95.437,540.486,538.964,0.0
52684.0,STARLINK-4014,PAYLOAD,2023-01-29 11:05:55,15.08831978,0.0001152,53.2169,200.3482,90.1471,269.9653,2.5138e-05,1.12e-06,0.0,0 STARLINK-4014,1 52684U 22053AE  23029.46244398  .00000112  00000-0  25138-4 0  9990,2 52684  53.2169 200.3482 0001152  90.1471 269.9653 15.08831978 39375,6917.905,95.438,540.567,538.973,0.0
52684.0,STARLINK-4014,PAYLOAD,2023-01-29 17:27:27,15.08837333,0.0001114,53.2167,199.1595,89.2719,270.84,2.4023e-05,9.5e-07,0.0,0 STARLINK-4014,1 52684U 22053AE  23029.72740124  .00000095  00000-0  24023-4 0  9999,2 52684  53.2167 199.1595 0001114  89.2719 270.8400 15.08837333 39793,6917.889,95.438,540.524,538.983,0.0
52684.0,STARLINK-4014,PAYLOAD,2023-01-30 04:35:09,15.08840657,0.0001105,53.2169,197.0778,89.3049,270.807,4.3517e-05,4.05e-06,0.0,0 STARLINK-4014,1 52684U 22053AE  23030.19107850  .00000405  00000-0  43517-4 0  9999,2 52684  53.2169 197.0778 0001105  89.3049 270.8070 15.08840657 39484,6917.878,95.438,540.508,538.979,0.0
52684.0,STARLINK-4014,PAYLOAD,2023-01-30 10:56:41,15.08841745,0.0001117,53.2168,195.8883,88.9871,271.1249,3.4856e-05,2.67e-06,0.0,0 STARLINK-4014,1 52684U 22053AE  23030.45603786  .00000267  00000-0  34856-4 0  9999,2 52684  53.2168 195.8883 0001117  88.9871 271.1249 15.08841745 39905,6917.875,95.437,540.513,538.967,0.0
52684.0,STARLINK-4014,PAYLOAD,2023-01-30 20:29:00,15.0884445,0.0001104,53.2164,194.1041,100.5997,259.512,0.00010987,1.461e-05,0.0,0 STARLINK-4014,1 52684U 22053AE  23030.85347242  .00001461  00000-0  10987-3 0  9990,2 52684  53.2164 194.1041 0001104 100.5997 259.5120 15.08844450 39965,6917.867,95.437,540.496,538.968,0.0
52684.0,STARLINK-4014,PAYLOAD,2023-01-31 04:25:55,15.08842485,0.0001073,53.2163,192.6174,86.4885,273.6229,2.8426e-05,1.65e-06,0.0,0 STARLINK-4014,1 52684U 22053AE  23031.18467560  .00000165  00000-0  28426-4 0  9991,2 52684  53.2163 192.6174 0001073  86.4885 273.6229 15.08842485 40018,6917.873,95.437,540.48,538.996,0.0
52684.0,STARLINK-4014,PAYLOAD,2023-01-31 18:44:24,15.08839393,0.0001129,53.2165,189.9409,89.2683,270.8439,4.9313e-05,4.97e-06,0.0,0 STARLINK-4014,1 52684U 22053AE  23031.78083732  .00000497  00000-0  49313-4 0  9998,2 52684  53.2165 189.9409 0001129  89.2683 270.8439 15.08839393 40105,6917.882,95.438,540.528,538.966,0.0
52684.0,STARLINK-4014,PAYLOAD,2023-02-02 02:32:07,15.08837113,6.01e-05,53.2187,183.9933,100.9111,259.1948,2.0637e-05,4.1e-07,0.0,0 STARLINK-4014,1 52684U 22053AE  23033.10563767  .00000041  00000-0  20637-4 0  9990,2 52684  53.2187 183.9933 0000601 100.9111 259.1948 15.08837113 39927,6917.889,95.438,540.17,539.338,0.0
52684.0,STARLINK-4014,PAYLOAD,2023-02-02 12:04:26,15.08831139,0.000117,53.2165,182.2102,90.9811,269.1315,-3.1977e-05,-7.97e-06,0.0,0 STARLINK-4014,1 52684U 22053AE  23033.50308693 -.00000797  00000-0 -31977-4 0  9998,2 52684  53.2165 182.2102 0001170  90.9811 269.1315 15.08831139 40361,6917.907,95.438,540.582,538.963,0.0
52684.0,STARLINK-4014,PAYLOAD,2023-02-03 11:55:13,15.0883236,0.0001184,53.216,177.751,98.5991,261.5136,3.1535e-05,2.14e-06,0.0,0 STARLINK-4014,1 52684U 22053AE  23034.49668809  .00000214  00000-0  31535-4 0  9997,2 52684  53.2160 177.7510 0001184  98.5991 261.5136 15.08832360 40517,6917.904,95.438,540.588,538.95,0.0
52684.0,STARLINK-4014,PAYLOAD,2023-02-04 06:59:51,15.08831215,9.34e-05,53.2167,174.1828,97.1188,262.9911,0.00010489,1.382e-05,0.0,0 STARLINK-4014,1 52684U 22053AE  23035.29156808  .00001382  00000-0  10489-3 0  9998,2 52684  53.2167 174.1828 0000934  97.1188 262.9911 15.08831215 40257,6917.907,95.438,540.418,539.126,0.0
52684.0,STARLINK-4014,PAYLOAD,2023-02-04 13:21:23,15.08839054,0.0001024,53.2166,172.9926,91.8639,268.247,0.00013002,1.782e-05,0.0,0 STARLINK-4014,1 52684U 22053AE  23035.55652368  .00001782  00000-0  13002-3 0  9997,2 52684  53.2166 172.9926 0001024  91.8639 268.2470 15.08839054 40678,6917.883,95.438,540.457,539.04,0.0
